{
  "type": "FeatureCollection",
  "features": [
    {
      "type": "Feature",
      "properties": {
        "norad_id": 58647,
        "name": "TIANMU-1 13",
        "group": "weather",
        "lat": -13.072998694224996,
        "lon": 9.637883286000378,
        "alt_km": 496.48621498041575,
        "timestamp": "2025-12-14T07:33:19.120449+00:00",
        "meta_object_name": "TIANMU-1 13",
        "meta_object_id": "2023-205C",
        "meta_epoch": "2025-12-13T15:51:37.826208",
        "meta_mean_motion": 15.24541752,
        "meta_eccentricity": 0.00060287,
        "meta_inclination": 97.3627,
        "meta_ra_of_asc_node": 7.2746,
        "meta_arg_of_pericenter": 262.9426,
        "meta_mean_anomaly": 97.1126,
        "meta_ephemeris_type": 0,
        "meta_classification_type": "U",
        "meta_norad_cat_id": 58647,
        "meta_element_set_no": 999,
        "meta_rev_at_epoch": 10921,
        "meta_bstar": 0.0003321585,
        "meta_mean_motion_dot": 8.111e-05,
        "meta_mean_motion_ddot": 0,
        "tle_line1": "1 58647U 23205C   25347.66085447  .00008111  00000+0  33216-3 0  9991",
        "tle_line2": "2 58647  97.3627   7.2746 0006028 262.9426  97.1126 15.24541752109214"
      },
      "geometry": {
        "type": "Point",
        "coordinates": [
          9.637883286000378,
          -13.072998694224996
        ]
      }
    },
    {
      "type": "Feature",
      "properties": {
        "norad_id": 58648,
        "name": "TIANMU-1 14",
        "group": "weather",
        "lat": 75.78745621129713,
        "lon": -23.40383551071633,
        "alt_km": 489.6588612689393,
        "timestamp": "2025-12-14T07:33:19.120459+00:00",
        "meta_object_name": "TIANMU-1 14",
        "meta_object_id": "2023-205D",
        "meta_epoch": "2025-12-13T15:27:44.341344",
        "meta_mean_motion": 15.24524838,
        "meta_eccentricity": 0.00068295,
        "meta_inclination": 97.3559,
        "meta_ra_of_asc_node": 6.606,
        "meta_arg_of_pericenter": 268.9064,
        "meta_mean_anomaly": 91.1391,
        "meta_ephemeris_type": 0,
        "meta_classification_type": "U",
        "meta_norad_cat_id": 58648,
        "meta_element_set_no": 999,
        "meta_rev_at_epoch": 10921,
        "meta_bstar": 0.00031551416,
        "meta_mean_motion_dot": 7.698e-05,
        "meta_mean_motion_ddot": 0,
        "tle_line1": "1 58648U 23205D   25347.64426321  .00007698  00000+0  31551-3 0  9999",
        "tle_line2": "2 58648  97.3559   6.6060 0006829 268.9064  91.1391 15.24524838109218"
      },
      "geometry": {
        "type": "Point",
        "coordinates": [
          -23.40383551071633,
          75.78745621129713
        ]
      }
    },
    {
      "type": "Feature",
      "properties": {
        "norad_id": 58660,
        "name": "TIANMU-1 19",
        "group": "weather",
        "lat": -8.30072373260894,
        "lon": 100.4406522732565,
        "alt_km": 486.9652354898062,
        "timestamp": "2025-12-14T07:33:19.120470+00:00",
        "meta_object_name": "TIANMU-1 19",
        "meta_object_id": "2023-208A",
        "meta_epoch": "2025-12-13T14:18:07.101792",
        "meta_mean_motion": 15.27875204,
        "meta_eccentricity": 0.00041342,
        "meta_inclination": 97.4384,
        "meta_ra_of_asc_node": 98.6311,
        "meta_arg_of_pericenter": 248.9684,
        "meta_mean_anomaly": 111.1114,
        "meta_ephemeris_type": 0,
        "meta_classification_type": "U",
        "meta_norad_cat_id": 58660,
        "meta_element_set_no": 999,
        "meta_rev_at_epoch": 10895,
        "meta_bstar": 0.0005294106,
        "meta_mean_motion_dot": 0.00014348,
        "meta_mean_motion_ddot": 0,
        "tle_line1": "1 58660U 23208A   25347.59591553  .00014348  00000+0  52941-3 0  9996",
        "tle_line2": "2 58660  97.4384  98.6311 0004134 248.9684 111.1114 15.27875204108957"
      },
      "geometry": {
        "type": "Point",
        "coordinates": [
          100.4406522732565,
          -8.30072373260894
        ]
      }
    },
    {
      "type": "Feature",
      "properties": {
        "norad_id": 58661,
        "name": "TIANMU-1 20",
        "group": "weather",
        "lat": 71.16341289326353,
        "lon": 77.29924050325687,
        "alt_km": 476.01148889104934,
        "timestamp": "2025-12-14T07:33:19.120482+00:00",
        "meta_object_name": "TIANMU-1 20",
        "meta_object_id": "2023-208B",
        "meta_epoch": "2025-12-13T15:31:57.342144",
        "meta_mean_motion": 15.29063889,
        "meta_eccentricity": 0.00063137,
        "meta_inclination": 97.4321,
        "meta_ra_of_asc_node": 99.1306,
        "meta_arg_of_pericenter": 262.0627,
        "meta_mean_anomaly": 97.9897,
        "meta_ephemeris_type": 0,
        "meta_classification_type": "U",
        "meta_norad_cat_id": 58661,
        "meta_element_set_no": 999,
        "meta_rev_at_epoch": 10903,
        "meta_bstar": 0.0004028021,
        "meta_mean_motion_dot": 0.00011302,
        "meta_mean_motion_ddot": 0,
        "tle_line1": "1 58661U 23208B   25347.64719146  .00011302  00000+0  40280-3 0  9993",
        "tle_line2": "2 58661  97.4321  99.1306 0006313 262.0627  97.9897 15.29063889109033"
      },
      "geometry": {
        "type": "Point",
        "coordinates": [
          77.29924050325687,
          71.16341289326353
        ]
      }
    },
    {
      "type": "Feature",
      "properties": {
        "norad_id": 58662,
        "name": "TIANMU-1 21",
        "group": "weather",
        "lat": 82.39039694321788,
        "lon": -0.4008009398182066,
        "alt_km": 467.4218743836245,
        "timestamp": "2025-12-14T07:33:19.120517+00:00",
        "meta_object_name": "TIANMU-1 21",
        "meta_object_id": "2023-208C",
        "meta_epoch": "2025-12-13T15:28:35.096160",
        "meta_mean_motion": 15.31577886,
        "meta_eccentricity": 0.00058749,
        "meta_inclination": 97.4369,
        "meta_ra_of_asc_node": 101.0407,
        "meta_arg_of_pericenter": 256.2387,
        "meta_mean_anomaly": 103.82,
        "meta_ephemeris_type": 0,
        "meta_classification_type": "U",
        "meta_norad_cat_id": 58662,
        "meta_element_set_no": 999,
        "meta_rev_at_epoch": 10913,
        "meta_bstar": 0.00043180944,
        "meta_mean_motion_dot": 0.00013104,
        "meta_mean_motion_ddot": 0,
        "tle_line1": "1 58662U 23208C   25347.64485065  .00013104  00000+0  43181-3 0  9999",
        "tle_line2": "2 58662  97.4369 101.0407 0005874 256.2387 103.8200 15.31577886109136"
      },
      "geometry": {
        "type": "Point",
        "coordinates": [
          -0.4008009398182066,
          82.39039694321788
        ]
      }
    },
    {
      "type": "Feature",
      "properties": {
        "norad_id": 58663,
        "name": "TIANMU-1 22",
        "group": "weather",
        "lat": -8.508144085906908,
        "lon": 100.52648199661309,
        "alt_km": 486.4037825560654,
        "timestamp": "2025-12-14T07:33:19.120531+00:00",
        "meta_object_name": "TIANMU-1 22",
        "meta_object_id": "2023-208D",
        "meta_epoch": "2025-12-13T14:18:00.281376",
        "meta_mean_motion": 15.27627969,
        "meta_eccentricity": 0.0002681,
        "meta_inclination": 97.4377,
        "meta_ra_of_asc_node": 98.6896,
        "meta_arg_of_pericenter": 282.4547,
        "meta_mean_anomaly": 77.6393,
        "meta_ephemeris_type": 0,
        "meta_classification_type": "U",
        "meta_norad_cat_id": 58663,
        "meta_element_set_no": 999,
        "meta_rev_at_epoch": 10896,
        "meta_bstar": 0.0004971806,
        "meta_mean_motion_dot": 0.00013365,
        "meta_mean_motion_ddot": 0,
        "tle_line1": "1 58663U 23208D   25347.59583659  .00013365  00000+0  49718-3 0  9993",
        "tle_line2": "2 58663  97.4377  98.6896 0002681 282.4547  77.6393 15.27627969108965"
      },
      "geometry": {
        "type": "Point",
        "coordinates": [
          100.52648199661309,
          -8.508144085906908
        ]
      }
    },
    {
      "type": "Feature",
      "properties": {
        "norad_id": 58700,
        "name": "TIANMU-1 15",
        "group": "weather",
        "lat": 73.41275283791924,
        "lon": 15.888318830391192,
        "alt_km": 487.972968634529,
        "timestamp": "2025-12-14T07:33:19.120542+00:00",
        "meta_object_name": "TIANMU-1 15",
        "meta_object_id": "2024-004A",
        "meta_epoch": "2025-12-11T12:56:40.540704",
        "meta_mean_motion": 15.24670451,
        "meta_eccentricity": 0.00052437,
        "meta_inclination": 97.4631,
        "meta_ra_of_asc_node": 167.0136,
        "meta_arg_of_pericenter": 303.7498,
        "meta_mean_anomaly": 56.324,
        "meta_ephemeris_type": 0,
        "meta_classification_type": "U",
        "meta_norad_cat_id": 58700,
        "meta_element_set_no": 999,
        "meta_rev_at_epoch": 10716,
        "meta_bstar": 0.00086402607,
        "meta_mean_motion_dot": 0.00021326,
        "meta_mean_motion_ddot": 0,
        "tle_line1": "1 58700U 24004A   25345.53935811  .00021326  00000+0  86403-3 0  9991",
        "tle_line2": "2 58700  97.4631 167.0136 0005243 303.7498  56.3240 15.24670451107164"
      },
      "geometry": {
        "type": "Point",
        "coordinates": [
          15.888318830391192,
          73.41275283791924
        ]
      }
    }
  ]
}